{
  "norad_id": 51892,
  "name": "STARLINK-3587",
  "history": [
    {
      "epoch": "2026-03-28T21:28:36.593472",
      "apogee_km": 540.6423892706844,
      "perigee_km": 538.8299065059373,
      "latitude_deg": 11.82249106546741,
      "longitude_deg": 175.10732607985847,
      "semi_major_axis_km": 6917.87314788831,
      "eccentricity": 0.000131,
      "inclination_deg": 53.2171,
      "raan_deg": 272.9069,
      "arg_perigee_deg": 91.3909,
      "mean_anomaly_deg": 268.7233,
      "mean_motion_rev_day": 15.08842369
    }
  ]
}